{
    "links": {
        "self": "http://www.neowsapp.com/rest/v1/neo/3781709?api_key=iIulBulltgU6a56xZRHN4H3l9WmuAYTsLGpBGhQ2"
    },
    "id": "3781709",
    "neo_reference_id": "3781709",
    "name": "(2017 SR11)",
    "designation": "2017 SR11",
    "nasa_jpl_url": "http://ssd.jpl.nasa.gov/sbdb.cgi?sstr=3781709",
    "absolute_magnitude_h": 23.9,
    "estimated_diameter": {
        "kilometers": {
            "estimated_diameter_min": 0.04411182,
            "estimated_diameter_max": 0.0986370281
        },
        "meters": {
            "estimated_diameter_min": 44.1118199997,
            "estimated_diameter_max": 98.6370281305
        },
        "miles": {
            "estimated_diameter_min": 0.0274098057,
            "estimated_diameter_max": 0.0612901888
        },
        "feet": {
            "estimated_diameter_min": 144.7238235278,
            "estimated_diameter_max": 323.6123073718
        }
    },
    "is_potentially_hazardous_asteroid": false,
    "close_approach_data": [
        {
            "close_approach_date": "2017-10-02",
            "close_approach_date_full": "2017-Oct-02 12:32",
            "epoch_date_close_approach": 1506947520000,
            "relative_velocity": {
                "kilometers_per_second": "6.5261342768",
                "kilometers_per_hour": "23494.0833964653",
                "miles_per_hour": "14598.3097637648"
            },
            "miss_distance": {
                "astronomical": "0.1968893585",
                "lunar": "76.5899604565",
                "kilometers": "29454228.657266395",
                "miles": "18302009.012190451"
            },
            "orbiting_body": "Earth"
        }
    ],
    "orbital_data": {
        "orbit_id": "1",
        "orbit_determination_date": "2017-09-25 13:42:06",
        "first_observation_date": "2017-09-19",
        "last_observation_date": "2017-09-25",
        "data_arc_in_days": 6,
        "observations_used": 12,
        "orbit_uncertainty": "8",
        "minimum_orbit_intersection": ".185031",
        "jupiter_tisserand_invariant": "4.787",
        "epoch_osculation": "2458016.5",
        "eccentricity": ".1344783164194678",
        "semi_major_axis": "1.371543473857451",
        "inclination": "12.66912400556313",
        "ascending_node_longitude": "184.3027756886413",
        "orbital_period": "586.6955496062084",
        "perihelion_distance": "1.187100616596993",
        "perihelion_argument": "183.5735354383935",
        "aphelion_distance": "1.55598633111791",
        "perihelion_time": "2458023.645692081529",
        "mean_anomaly": "355.6153593612955",
        "mean_motion": ".6136061544043294",
        "equinox": "J2000",
        "orbit_class": {
            "orbit_class_type": "AMO",
            "orbit_class_description": "Near-Earth asteroid orbits similar to that of 1221 Amor",
            "orbit_class_range": "1.017 AU < q (perihelion) < 1.3 AU"
        }
    },
    "is_sentry_object": false
}